HAWK-9A                 
1 59446U 24066E   26068.43100697  .00002638  00000+0  23459-3 0  9992
2 59446  45.6088  72.7153 0003627 244.6286 115.4219 14.98777479104861
STARLINK-35660          
1 67003U 25293A   26068.49468287  .00001883  00000+0  16551-3 0  9997
2 67003  70.0002  95.1494 0003498 266.2084  93.8675 14.98333771 14853
